ONEWEB-0311             
1 49097U 21075Y   25005.26346096  .00000108  00000+0  24446-3 0  9993
2 49097  87.9104 111.0386 0002006  94.8537 265.2823 13.17650541164107
ONEWEB-0312             
1 49098U 21075Z   25005.27865131  .00000131  00000+0  30336-3 0  9992
2 49098  87.9104 111.0672 0002157 105.2619 254.8751 13.17650648164080
ONEWEB-0313             
1 49099U 21075AA  25005.58731727  .00000027  00000+0  37597-4 0  9991
2 49099  87.9105 111.0214 0001937 103.4849 256.6498 13.17650577165118
ONEWEB-0314             
1 49100U 21075AB  25005.24996375  .00000048  00000+0  90594-4 0  9998
2 49100  87.9100 111.0259 0002081 104.2869 255.8494 13.17650255164048
ONEWEB-0315             
1 49101U 21075AC  25005.26700529 -.00000333  00000+0 -96030-3 0  9994
2 49101  87.8872  95.7734 0001867  91.7591 268.3752 13.12440585165925
ONEWEB-0316             
1 49102U 21075AD  25005.43844861  .00000032  00000+0  49071-4 0  9990
2 49102  87.9104  80.4629 0001928  97.2509 262.8843 13.18687312167656
ONEWEB-0317             
1 49103U 21075AE  25005.48923091 -.00000134  00000+0 -40655-3 0  9992
2 49103  87.8879  95.7425 0001534 121.7917 238.3361 13.12440594165976
ONEWEB-0318             
1 49104U 21075AF  25005.43529364  .00000060  00000+0  11911-3 0  9992
2 49104  87.9101  80.4518 0001965  95.1478 264.9878 13.18687155167617
